NORAD_CAT_ID,OBJECT_NAME,OBJECT_TYPE,EPOCH,MEAN_MOTION,ECCENTRICITY,INCLINATION,RA_OF_ASC_NODE,ARG_OF_PERICENTER,MEAN_ANOMALY,BSTAR,MEAN_MOTION_DOT,MEAN_MOTION_DDOT,TLE_LINE0,TLE_LINE1,TLE_LINE2,SEMIMAJOR_AXIS,PERIOD,APOGEE,PERIGEE,DECAYED
49756.0,STARLINK-3207,PAYLOAD,2023-02-13 15:12:32,15.08859612,0.0001268,53.2159,127.2422,92.0,268.1138,0.00054284,8.367e-05,0.0,0 STARLINK-3207,1 49756U 21115AJ  23044.63371143  .00008367  00000-0  54284-3 0  9992,2 49756  53.2159 127.2422 0001268  92.0000 268.1138 15.08859612 67698,6917.82,95.436,540.563,538.808,0.0
49756.0,STARLINK-3207,PAYLOAD,2023-02-14 10:17:10,15.08851052,0.0001408,53.216,123.673,111.5068,248.6074,0.00030523,4.575e-05,0.0,0 STARLINK-3207,1 49756U 21115AJ  23045.42859362  .00004575  00000-0  30523-3 0  9991,2 49756  53.2160 123.6730 0001408 111.5068 248.6074 15.08851052 67815,6917.847,95.437,540.686,538.738,0.0
49756.0,STARLINK-3207,PAYLOAD,2023-02-14 13:27:56,15.0885404,0.0001274,53.2166,123.0787,110.363,249.75,0.00052771,8.124e-05,0.0,0 STARLINK-3207,1 49756U 21115AJ  23045.56107253  .00008124  00000-0  52771-3 0  9994,2 49756  53.2166 123.0787 0001274 110.3630 249.7500 15.08854040 66725,6917.837,95.437,540.584,538.821,0.0
49756.0,STARLINK-3207,PAYLOAD,2023-02-14 16:38:42,15.08871733,9.91e-05,53.2169,122.4847,100.7745,259.3358,0.001318,0.00020768,0.0,0 STARLINK-3207,1 49756U 21115AJ  23045.69354906  .00020768  00000-0  13180-2 0  9995,2 49756  53.2169 122.4847 0000991 100.7745 259.3358 15.08871733 67854,6917.783,95.436,540.334,538.963,0.0
49756.0,STARLINK-3207,PAYLOAD,2023-02-15 08:32:34,15.0886088,0.0001405,53.2173,119.5108,100.5192,259.5958,0.0018343,0.00029042,0.0,0 STARLINK-3207,1 49756U 21115AJ  23046.35595437  .00029042  00000-0  18343-2 0  9995,2 49756  53.2173 119.5108 0001405 100.5192 259.5958 15.08860880 67951,6917.817,95.436,540.654,538.71,0.0
49756.0,STARLINK-3207,PAYLOAD,2023-02-15 11:43:20,15.0886663,0.0001074,53.2173,118.9162,81.3922,278.7192,0.0023744,0.00037731,0.0,0 STARLINK-3207,1 49756U 21115AJ  23046.48843381  .00037731  00000-0  23744-2 0  9998,2 49756  53.2173 118.9162 0001074  81.3922 278.7192 15.08866630 66864,6917.799,95.436,540.407,538.921,0.0
49756.0,STARLINK-3207,PAYLOAD,2023-02-15 14:54:06,15.08883204,0.0001119,53.2172,118.3216,78.6349,281.4768,0.0031549,0.00050341,0.0,0 STARLINK-3207,1 49756U 21115AJ  23046.62091119  .00050341  00000-0  31549-2 0  9992,2 49756  53.2172 118.3216 0001119  78.6349 281.4768 15.08883204 66887,6917.748,95.435,540.387,538.839,0.0
49756.0,STARLINK-3207,PAYLOAD,2023-02-16 08:23:20,15.08889109,0.0001109,53.2174,115.0514,107.247,252.8644,0.0026369,0.00041985,0.0,0 STARLINK-3207,1 49756U 21115AJ  23047.34954361  .00041985  00000-0  26369-2 0  9997,2 49756  53.2174 115.0514 0001109 107.2470 252.8644 15.08889109 68109,6917.73,95.434,540.362,538.828,0.0
49756.0,STARLINK-3207,PAYLOAD,2023-02-16 11:34:06,15.0889039,0.0001107,53.2175,114.4565,102.7777,257.3339,0.0024677,0.00039259,0.0,0 STARLINK-3207,1 49756U 21115AJ  23047.48202027  .00039259  00000-0  24677-2 0  9998,2 49756  53.2175 114.4565 0001107 102.7777 257.3339 15.08890390 67011,6917.726,95.434,540.357,538.826,0.0
49756.0,STARLINK-3207,PAYLOAD,2023-02-17 05:03:21,15.08844693,0.0001674,53.2179,111.186,112.0892,248.0278,0.0013754,0.00021672,0.0,0 STARLINK-3207,1 49756U 21115AJ  23048.21066695  .00021672  00000-0  13754-2 0  9993,2 49756  53.2179 111.1860 0001674 112.0892 248.0278 15.08844693 68237,6917.866,95.437,540.889,538.573,0.0
49756.0,STARLINK-3207,PAYLOAD,2023-02-17 13:00:18,15.08814,0.0001189,53.2177,109.6991,65.4778,294.6338,0.0020094,0.00031813,0.0,0 STARLINK-3207,1 49756U 21115AJ  23048.54187564  .00031813  00000-0  20094-2 0  9991,2 49756  53.2177 109.6991 0001189  65.4778 294.6338 15.08814000 68285,6917.96,95.439,540.647,539.002,0.0
49756.0,STARLINK-3207,PAYLOAD,2023-02-17 20:57:14,15.08817291,0.0001275,53.2173,108.2118,70.2957,289.8172,0.00088861,0.00013874,0.0,0 STARLINK-3207,1 49756U 21115AJ  23048.87308149  .00013874  00000-0  88861-3 0  9995,2 49756  53.2173 108.2118 0001275  70.2957 289.8172 15.08817291 68339,6917.95,95.439,540.697,538.933,0.0
49756.0,STARLINK-3207,PAYLOAD,2023-02-18 12:51:05,15.0884346,0.0001395,53.2171,105.2383,68.8044,291.3097,0.0011371,0.00017857,0.0,0 STARLINK-3207,1 49756U 21115AJ  23049.53548460  .00017857  00000-0  11371-2 0  9997,2 49756  53.2171 105.2383 0001395  68.8044 291.3097 15.08843460 67320,6917.87,95.437,540.7,538.77,0.0
49756.0,STARLINK-3207,PAYLOAD,2023-02-19 11:06:29,15.08852788,0.0001315,53.2171,101.0755,73.7831,286.3305,0.00062698,9.708e-05,0.0,0 STARLINK-3207,1 49756U 21115AJ  23050.46284182  .00009708  00000-0  62698-3 0  9994,2 49756  53.2171 101.0755 0001315  73.7831 286.3305 15.08852788 68575,6917.841,95.437,540.616,538.797,0.0
49756.0,STARLINK-3207,PAYLOAD,2023-02-20 09:21:53,15.08842508,0.0001293,53.2172,96.9116,83.5486,276.5654,0.00011688,1.573e-05,0.0,0 STARLINK-3207,1 49756U 21115AJ  23051.39020196  .00001573  00000-0  11688-3 0  9995,2 49756  53.2172  96.9116 0001293  83.5486 276.5654 15.08842508 68712,6917.873,95.437,540.632,538.843,0.0
49756.0,STARLINK-3207,PAYLOAD,2023-02-20 12:32:39,15.08849093,0.0001379,53.217,96.316,89.6458,270.4692,0.0002333,3.428e-05,0.0,0 STARLINK-3207,1 49756U 21115AJ  23051.52268057  .00003428  00000-0  23330-3 0  9998,2 49756  53.2170  96.3160 0001379  89.6458 270.4692 15.08849093 67624,6917.853,95.437,540.672,538.764,0.0
49756.0,STARLINK-3207,PAYLOAD,2023-02-21 10:48:03,15.08848226,0.0001474,53.217,92.1537,94.417,265.699,0.00017382,2.48e-05,0.0,0 STARLINK-3207,1 49756U 21115AJ  23052.45003966  .00002480  00000-0  17382-3 0  9994,2 49756  53.2170  92.1537 0001474  94.4170 265.6990 15.08848226 68879,6917.855,95.437,540.74,538.701,0.0
49756.0,STARLINK-3207,PAYLOAD,2023-02-22 02:41:55,15.08839864,0.0001503,53.2164,89.1792,99.5189,260.5973,9.9235e-05,1.292e-05,0.0,0 STARLINK-3207,1 49756U 21115AJ  23053.11244384  .00001292  00000-0  99235-4 0  9997,2 49756  53.2164  89.1792 0001503  99.5189 260.5973 15.08839864 68974,6917.881,95.438,540.786,538.706,0.0
49756.0,STARLINK-3207,PAYLOAD,2023-02-22 12:14:13,15.08843728,0.0001481,53.2172,87.3953,98.4194,261.6966,6.0869e-05,6.81e-06,0.0,0 STARLINK-3207,1 49756U 21115AJ  23053.50988133  .00000681  00000-0  60869-4 0  9999,2 49756  53.2172  87.3953 0001481  98.4194 261.6966 15.08843728 67923,6917.869,95.437,540.759,538.709,0.0
49756.0,STARLINK-3207,PAYLOAD,2023-02-22 18:35:46,15.08835944,0.0001491,53.218,86.2046,92.5802,267.5361,-4.2048e-05,-9.57e-06,0.0,0 STARLINK-3207,1 49756U 21115AJ  23053.77484573 -.00000957  00000-0 -42048-4 0  9994,2 49756  53.2180  86.2046 0001491  92.5802 267.5361 15.08835944 67964,6917.893,95.438,540.789,538.726,0.0
49756.0,STARLINK-3207,PAYLOAD,2023-02-23 05:43:28,15.08835145,0.0001382,53.2183,84.1257,98.6407,261.4741,3.3674e-05,2.48e-06,0.0,0 STARLINK-3207,1 49756U 21115AJ  23054.23852992  .00000248  00000-0  33674-4 0  9996,2 49756  53.2183  84.1257 0001382  98.6407 261.4741 15.08835145 69145,6917.895,95.438,540.716,538.804,0.0
49756.0,STARLINK-3207,PAYLOAD,2023-02-23 12:05:01,15.08841269,0.0001435,53.2184,82.9357,90.2119,269.9038,5.5543e-05,5.96e-06,0.0,0 STARLINK-3207,1 49756U 21115AJ  23054.50348602  .00000596  00000-0  55543-4 0  9999,2 49756  53.2184  82.9357 0001435  90.2119 269.9038 15.08841269 68077,6917.877,95.437,540.734,538.749,0.0
49756.0,STARLINK-3207,PAYLOAD,2023-02-23 18:26:33,15.08837099,0.0001468,53.2178,81.7457,89.0723,271.0437,-1.8821e-05,-5.87e-06,0.0,0 STARLINK-3207,1 49756U 21115AJ  23054.76844694 -.00000587  00000-0 -18821-4 0  9999,2 49756  53.2178  81.7457 0001468  89.0723 271.0437 15.08837099 68119,6917.889,95.438,540.77,538.739,0.0
49756.0,STARLINK-3207,PAYLOAD,2023-02-24 05:34:15,15.08841738,0.0001403,53.2172,79.6637,99.9917,260.1234,0.00012308,1.672e-05,0.0,0 STARLINK-3207,1 49756U 21115AJ  23055.23212562  .00001672  00000-0  12308-3 0  9992,2 49756  53.2172  79.6637 0001403  99.9917 260.1234 15.08841738 69292,6917.875,95.437,540.711,538.769,0.0
49756.0,STARLINK-3207,PAYLOAD,2023-02-24 10:20:24,15.0884685,0.0001443,53.2174,78.7717,100.8116,259.3038,0.00018782,2.703e-05,0.0,0 STARLINK-3207,1 49756U 21115AJ  23055.43084315  .00002703  00000-0  18782-3 0  9995,2 49756  53.2174  78.7717 0001443 100.8116 259.3038 15.08846850 68213,6917.859,95.437,540.723,538.726,0.0
49756.0,STARLINK-3207,PAYLOAD,2023-02-24 18:17:20,15.0884343,0.0001479,53.2177,77.2853,84.9312,275.1849,9.5157e-05,1.227e-05,0.0,0 STARLINK-3207,1 49756U 21115AJ  23055.76204511  .00001227  00000-0  95157-4 0  9995,2 49756  53.2177  77.2853 0001479  84.9312 275.1849 15.08843430 68262,6917.87,95.437,540.758,538.712,0.0
49756.0,STARLINK-3207,PAYLOAD,2023-02-25 07:00:26,15.08831574,0.0001519,53.218,74.9071,92.1129,268.0037,-1.3931e-05,-5.1e-06,0.0,0 STARLINK-3207,1 49756U 21115AJ  23056.29197286 -.00000510  00000-0 -13931-4 0  9990,2 49756  53.2180  74.9071 0001519  92.1129 268.0037 15.08831574 69452,6917.906,95.438,540.822,538.72,0.0
49756.0,STARLINK-3207,PAYLOAD,2023-02-25 13:21:58,15.08838241,0.000135,53.2186,73.7178,89.192,270.9227,5.4332e-05,5.77e-06,0.0,0 STARLINK-3207,1 49756U 21115AJ  23056.55693263  .00000577  00000-0  54332-4 0  9996,2 49756  53.2186  73.7178 0001350  89.1920 270.9227 15.08838241 68383,6917.886,95.438,540.685,538.817,0.0
49756.0,STARLINK-3207,PAYLOAD,2023-02-25 18:08:08,15.0883438,0.0001265,53.2185,72.8251,87.6837,272.43,3.0008e-05,1.9e-06,0.0,0 STARLINK-3207,1 49756U 21115AJ  23056.75565606  .00000190  00000-0  30008-4 0  9992,2 49756  53.2185  72.8251 0001265  87.6837 272.4300 15.08834380 68412,6917.898,95.438,540.638,538.887,0.0
49756.0,STARLINK-3207,PAYLOAD,2023-02-26 10:01:59,15.08851403,0.0001357,53.2176,69.8506,89.0815,271.0333,0.00020907,3.042e-05,0.0,0 STARLINK-3207,1 49756U 21115AJ  23057.41804484  .00003042  00000-0  20907-3 0  9991,2 49756  53.2176  69.8506 0001357  89.0815 271.0333 15.08851403 69625,6917.846,95.437,540.649,538.772,0.0
